[{"OBJECT_NAME":"IRIDIUM 153","OBJECT_ID":"2017-083J","EPOCH":"2026-03-09T17:37:27.321600","MEAN_MOTION":14.3421931,"ECCENTRICITY":0.00020663,"INCLINATION":86.4011,"RA_OF_ASC_NODE":332.0651,"ARG_OF_PERICENTER":78.2032,"MEAN_ANOMALY":281.9395,"EPHEMERIS_TYPE":0,"CLASSIFICATION_TYPE":"U","NORAD_CAT_ID":43078,"ELEMENT_SET_NO":999,"REV_AT_EPOCH":43102,"BSTAR":0.00013580014,"MEAN_MOTION_DOT":4.0e-6,"MEAN_MOTION_DDOT":0},{"OBJECT_NAME":"NOAA 16 DEB","OBJECT_ID":"2000-055HQ","EPOCH":"2026-03-09T00:01:54.906816","MEAN_MOTION":14.34194971,"ECCENTRICITY":0.00166189,"INCLINATION":98.7014,"RA_OF_ASC_NODE":144.9498,"ARG_OF_PERICENTER":285.6387,"MEAN_ANOMALY":74.2963,"EPHEMERIS_TYPE":0,"CLASSIFICATION_TYPE":"U","NORAD_CAT_ID":41347,"ELEMENT_SET_NO":999,"REV_AT_EPOCH":52286,"BSTAR":0.0027947652,"MEAN_MOTION_DOT":7.808e-5,"MEAN_MOTION_DDOT":0}]
